[
  {
    "COMMENT": "GENERATED VIA SPACETRACK.ORG API",
    "ORIGINATOR": "18 SPCS",
    "NORAD_CAT_ID": "27386",
    "OBJECT_NAME": "ENVISAT",
    "OBJECT_TYPE": "PAYLOAD",
    "CLASSIFICATION_TYPE": "U",
    "INTLDES": "02009A",
    "EPOCH": "2023-04-04 21:23:23",
    "EPOCH_MICROSECONDS": "173152",
    "MEAN_MOTION": "14.38305965",
    "ECCENTRICITY": "0.0001392",
    "INCLINATION": "98.2242",
    "RA_OF_ASC_NODE": "67.934",
    "ARG_OF_PERICENTER": "85.5655",
    "MEAN_ANOMALY": "328.0853",
    "EPHEMERIS_TYPE": "0",
    "ELEMENT_SET_NO": "999",
    "REV_AT_EPOCH": "10535",
    "BSTAR": "0.00015315",
    "MEAN_MOTION_DOT": "0.00000425",
    "MEAN_MOTION_DDOT": "0",
    "FILE": "3880211",
    "TLE_LINE0": "0 ENVISAT",
    "TLE_LINE1": "1 27386U 02009A   23094.89124043  .00000425  00000-0  15315-3 0  9995",
    "TLE_LINE2": "2 27386  98.2242  67.9340 0001392  85.5655 328.0853 14.38305965105350",
    "OBJECT_ID": "2002-009A",
    "OBJECT_NUMBER": "27386",
    "SEMIMAJOR_AXIS": "7142.238",
    "PERIOD": "100.118",
    "APOGEE": "765.097",
    "PERIGEE": "763.109",
    "DECAYED": "0"
  },
  {
    "COMMENT": "GENERATED VIA SPACETRACK.ORG API",
    "ORIGINATOR": "18 SPCS",
    "NORAD_CAT_ID": "27386",
    "OBJECT_NAME": "ENVISAT",
    "OBJECT_TYPE": "PAYLOAD",
    "CLASSIFICATION_TYPE": "U",
    "INTLDES": "02009A",
    "EPOCH": "2023-04-04 23:07:39",
    "EPOCH_MICROSECONDS": "44640",
    "MEAN_MOTION": "14.38306071",
    "ECCENTRICITY": "0.0001383",
    "INCLINATION": "98.2242",
    "RA_OF_ASC_NODE": "68.0034",
    "ARG_OF_PERICENTER": "85.3491",
    "MEAN_ANOMALY": "342.9948",
    "EPHEMERIS_TYPE": "0",
    "ELEMENT_SET_NO": "999",
    "REV_AT_EPOCH": "10543",
    "BSTAR": "0.00015409",
    "MEAN_MOTION_DOT": "0.00000427",
    "MEAN_MOTION_DDOT": "0",
    "FILE": "3880424",
    "TLE_LINE0": "0 ENVISAT",
    "TLE_LINE1": "1 27386U 02009A   23094.96364635  .00000427  00000-0  15409-3 0  9992",
    "TLE_LINE2": "2 27386  98.2242  68.0034 0001383  85.3491 342.9948 14.38306071105436",
    "OBJECT_ID": "2002-009A",
    "OBJECT_NUMBER": "27386",
    "SEMIMAJOR_AXIS": "7142.238",
    "PERIOD": "100.118",
    "APOGEE": "765.090",
    "PERIGEE": "763.115",
    "DECAYED": "0"
  },
  {
    "COMMENT": "GENERATED VIA SPACETRACK.ORG API",
    "ORIGINATOR": "18 SPCS",
    "NORAD_CAT_ID": "27386",
    "OBJECT_NAME": "ENVISAT",
    "OBJECT_TYPE": "PAYLOAD",
    "CLASSIFICATION_TYPE": "U",
    "INTLDES": "02009A",
    "EPOCH": "2023-04-05 12:41:04",
    "EPOCH_MICROSECONDS": "476192",
    "MEAN_MOTION": "14.3830651",
    "ECCENTRICITY": "0.0001388",
    "INCLINATION": "98.2243",
    "RA_OF_ASC_NODE": "68.5445",
    "ARG_OF_PERICENTER": "85.203",
    "MEAN_ANOMALY": "26.3231",
    "EPHEMERIS_TYPE": "0",
    "ELEMENT_SET_NO": "999",
    "REV_AT_EPOCH": "10551",
    "BSTAR": "0.00014562",
    "MEAN_MOTION_DOT": "0.00000402",
    "MEAN_MOTION_DDOT": "0",
    "FILE": "3880779",
    "TLE_LINE0": "0 ENVISAT",
    "TLE_LINE1": "1 27386U 02009A   23095.52852403  .00000402  00000-0  14562-3 0  9992",
    "TLE_LINE2": "2 27386  98.2243  68.5445 0001388  85.2030  26.3231 14.38306510105516",
    "OBJECT_ID": "2002-009A",
    "OBJECT_NUMBER": "27386",
    "SEMIMAJOR_AXIS": "7142.236",
    "PERIOD": "100.118",
    "APOGEE": "765.093",
    "PERIGEE": "763.110",
    "DECAYED": "0"
  },
  {
    "COMMENT": "GENERATED VIA SPACETRACK.ORG API",
    "ORIGINATOR": "18 SPCS",
    "NORAD_CAT_ID": "27386",
    "OBJECT_NAME": "ENVISAT",
    "OBJECT_TYPE": "PAYLOAD",
    "CLASSIFICATION_TYPE": "U",
    "INTLDES": "02009A",
    "EPOCH": "2023-04-05 12:41:04",
    "EPOCH_MICROSECONDS": "476192",
    "MEAN_MOTION": "14.3830651",
    "ECCENTRICITY": "0.0001388",
    "INCLINATION": "98.2243",
    "RA_OF_ASC_NODE": "68.5445",
    "ARG_OF_PERICENTER": "85.203",
    "MEAN_ANOMALY": "26.3231",
    "EPHEMERIS_TYPE": "0",
    "ELEMENT_SET_NO": "999",
    "REV_AT_EPOCH": "10544",
    "BSTAR": "0.00014562",
    "MEAN_MOTION_DOT": "0.00000402",
    "MEAN_MOTION_DDOT": "0",
    "FILE": "3880853",
    "TLE_LINE0": "0 ENVISAT",
    "TLE_LINE1": "1 27386U 02009A   23095.52852403  .00000402  00000-0  14562-3 0  9992",
    "TLE_LINE2": "2 27386  98.2243  68.5445 0001388  85.2030  26.3231 14.38306510105448",
    "OBJECT_ID": "2002-009A",
    "OBJECT_NUMBER": "27386",
    "SEMIMAJOR_AXIS": "7142.236",
    "PERIOD": "100.118",
    "APOGEE": "765.093",
    "PERIGEE": "763.110",
    "DECAYED": "0"
  },
  {
    "COMMENT": "GENERATED VIA SPACETRACK.ORG API",
    "ORIGINATOR": "18 SPCS",
    "NORAD_CAT_ID": "27386",
    "OBJECT_NAME": "ENVISAT",
    "OBJECT_TYPE": "PAYLOAD",
    "CLASSIFICATION_TYPE": "U",
    "INTLDES": "02009A",
    "EPOCH": "2023-04-05 20:46:41",
    "EPOCH_MICROSECONDS": "706336",
    "MEAN_MOTION": "14.38306866",
    "ECCENTRICITY": "0.0001374",
    "INCLINATION": "98.2244",
    "RA_OF_ASC_NODE": "68.8676",
    "ARG_OF_PERICENTER": "85.0809",
    "MEAN_ANOMALY": "331.609",
    "EPHEMERIS_TYPE": "0",
    "ELEMENT_SET_NO": "999",
    "REV_AT_EPOCH": "10556",
    "BSTAR": "0.00014573",
    "MEAN_MOTION_DOT": "0.00000402",
    "MEAN_MOTION_DDOT": "0",
    "FILE": "3881044",
    "TLE_LINE0": "0 ENVISAT",
    "TLE_LINE1": "1 27386U 02009A   23095.86576049  .00000402  00000-0  14573-3 0  9990",
    "TLE_LINE2": "2 27386  98.2244  68.8676 0001374  85.0809 331.6090 14.38306866105567",
    "OBJECT_ID": "2002-009A",
    "OBJECT_NUMBER": "27386",
    "SEMIMAJOR_AXIS": "7142.235",
    "PERIOD": "100.118",
    "APOGEE": "765.081",
    "PERIGEE": "763.119",
    "DECAYED": "0"
  },
  {
    "COMMENT": "GENERATED VIA SPACETRACK.ORG API",
    "ORIGINATOR": "18 SPCS",
    "NORAD_CAT_ID": "27386",
    "OBJECT_NAME": "ENVISAT",
    "OBJECT_TYPE": "PAYLOAD",
    "CLASSIFICATION_TYPE": "U",
    "INTLDES": "02009A",
    "EPOCH": "2023-04-05 22:28:12",
    "EPOCH_MICROSECONDS": "775008",
    "MEAN_MOTION": "14.38306918",
    "ECCENTRICITY": "0.0001379",
    "INCLINATION": "98.2244",
    "RA_OF_ASC_NODE": "68.9351",
    "ARG_OF_PERICENTER": "85.1409",
    "MEAN_ANOMALY": "336.3713",
    "EPHEMERIS_TYPE": "0",
    "ELEMENT_SET_NO": "999",
    "REV_AT_EPOCH": "10550",
    "BSTAR": "0.00014467",
    "MEAN_MOTION_DOT": "0.00000399",
    "MEAN_MOTION_DDOT": "0",
    "FILE": "3881153",
    "TLE_LINE0": "0 ENVISAT",
    "TLE_LINE1": "1 27386U 02009A   23095.93625897  .00000399  00000-0  14467-3 0  9991",
    "TLE_LINE2": "2 27386  98.2244  68.9351 0001379  85.1409 336.3713 14.38306918105506",
    "OBJECT_ID": "2002-009A",
    "OBJECT_NUMBER": "27386",
    "SEMIMAJOR_AXIS": "7142.235",
    "PERIOD": "100.118",
    "APOGEE": "765.085",
    "PERIGEE": "763.115",
    "DECAYED": "0"
  },
  {
    "COMMENT": "GENERATED VIA SPACETRACK.ORG API",
    "ORIGINATOR": "18 SPCS",
    "NORAD_CAT_ID": "27386",
    "OBJECT_NAME": "ENVISAT",
    "OBJECT_TYPE": "PAYLOAD",
    "CLASSIFICATION_TYPE": "U",
    "INTLDES": "02009A",
    "EPOCH": "2023-04-06 04:54:29",
    "EPOCH_MICROSECONDS": "980224",
    "MEAN_MOTION": "14.3830707",
    "ECCENTRICITY": "0.000139",
    "INCLINATION": "98.2244",
    "RA_OF_ASC_NODE": "69.1921",
    "ARG_OF_PERICENTER": "85.2706",
    "MEAN_ANOMALY": "284.4318",
    "EPHEMERIS_TYPE": "0",
    "ELEMENT_SET_NO": "999",
    "REV_AT_EPOCH": "10561",
    "BSTAR": "0.00013845",
    "MEAN_MOTION_DOT": "0.0000038",
    "MEAN_MOTION_DDOT": "0",
    "FILE": "3881358",
    "TLE_LINE0": "0 ENVISAT",
    "TLE_LINE1": "1 27386U 02009A   23096.20451366  .00000380  00000-0  13845-3 0  9999",
    "TLE_LINE2": "2 27386  98.2244  69.1921 0001390  85.2706 284.4318 14.38307070105612",
    "OBJECT_ID": "2002-009A",
    "OBJECT_NUMBER": "27386",
    "SEMIMAJOR_AXIS": "7142.234",
    "PERIOD": "100.118",
    "APOGEE": "765.092",
    "PERIGEE": "763.107",
    "DECAYED": "0"
  },
  {
    "COMMENT": "GENERATED VIA SPACETRACK.ORG API",
    "ORIGINATOR": "18 SPCS",
    "NORAD_CAT_ID": "27386",
    "OBJECT_NAME": "ENVISAT",
    "OBJECT_TYPE": "PAYLOAD",
    "CLASSIFICATION_TYPE": "U",
    "INTLDES": "02009A",
    "EPOCH": "2023-04-06 10:37:04",
    "EPOCH_MICROSECONDS": "888416",
    "MEAN_MOTION": "14.38307224",
    "ECCENTRICITY": "0.0001372",
    "INCLINATION": "98.2245",
    "RA_OF_ASC_NODE": "69.42",
    "ARG_OF_PERICENTER": "84.8028",
    "MEAN_ANOMALY": "76.0284",
    "EPHEMERIS_TYPE": "0",
    "ELEMENT_SET_NO": "999",
    "REV_AT_EPOCH": "10564",
    "BSTAR": "0.00013347",
    "MEAN_MOTION_DOT": "0.00000365",
    "MEAN_MOTION_DDOT": "0",
    "FILE": "3881619",
    "TLE_LINE0": "0 ENVISAT",
    "TLE_LINE1": "1 27386U 02009A   23096.44241769  .00000365  00000-0  13347-3 0  9999",
    "TLE_LINE2": "2 27386  98.2245  69.4200 0001372  84.8028  76.0284 14.38307224105649",
    "OBJECT_ID": "2002-009A",
    "OBJECT_NUMBER": "27386",
    "SEMIMAJOR_AXIS": "7142.234",
    "PERIOD": "100.118",
    "APOGEE": "765.079",
    "PERIGEE": "763.119",
    "DECAYED": "0"
  },
  {
    "COMMENT": "GENERATED VIA SPACETRACK.ORG API",
    "ORIGINATOR": "18 SPCS",
    "NORAD_CAT_ID": "27386",
    "OBJECT_NAME": "ENVISAT",
    "OBJECT_TYPE": "PAYLOAD",
    "CLASSIFICATION_TYPE": "U",
    "INTLDES": "02009A",
    "EPOCH": "2023-04-06 12:03:00",
    "EPOCH_MICROSECONDS": "797184",
    "MEAN_MOTION": "14.38307239",
    "ECCENTRICITY": "0.0001381",
    "INCLINATION": "98.2245",
    "RA_OF_ASC_NODE": "69.4772",
    "ARG_OF_PERICENTER": "84.9022",
    "MEAN_ANOMALY": "24.7401",
    "EPHEMERIS_TYPE": "0",
    "ELEMENT_SET_NO": "999",
    "REV_AT_EPOCH": "10565",
    "BSTAR": "0.00013177",
    "MEAN_MOTION_DOT": "0.0000036",
    "MEAN_MOTION_DDOT": "0",
    "FILE": "3881711",
    "TLE_LINE0": "0 ENVISAT",
    "TLE_LINE1": "1 27386U 02009A   23096.50209256  .00000360  00000-0  13177-3 0  9997",
    "TLE_LINE2": "2 27386  98.2245  69.4772 0001381  84.9022  24.7401 14.38307239105656",
    "OBJECT_ID": "2002-009A",
    "OBJECT_NUMBER": "27386",
    "SEMIMAJOR_AXIS": "7142.234",
    "PERIOD": "100.118",
    "APOGEE": "765.085",
    "PERIGEE": "763.112",
    "DECAYED": "0"
  }
]